IRIDIUM 155             
1 43573U 18061E   25150.57030662  .00000310  00000+0  10379-3 0  9996
2 43573  86.3996 216.5264 0002570  97.3745 262.7743 14.34218091358516
IRIDIUM 154             
1 43574U 18061F   25150.62104696  .00000055  00000+0  12411-4 0  9998
2 43574  86.4004 216.6206 0002369  94.1032 266.0435 14.34218201358579
IRIDIUM 163             
1 43575U 18061G   25150.60201943  .00000043  00000+0  83526-5 0  9993
2 43575  86.4001 216.5560 0002305  98.7639 261.3818 14.34217981358546
IRIDIUM 156             
1 43576U 18061H   25150.57664828  .00000175  00000+0  55387-4 0  9994
2 43576  86.4002 216.5735 0002695  93.9401 266.2103 14.34219288358530
IRIDIUM 164             
1 43577U 18061J   25150.62738980  .00000033  00000+0  47278-5 0  9996
2 43577  86.4003 216.5865 0002374  87.4503 272.6964 14.34218024358589
IRIDIUM 159             
1 43578U 18061K   25150.59567525  .00000077  00000+0  20336-4 0  9991
2 43578  86.4001 216.5444 0002106  92.7454 267.3983 14.34218481358543
IRIDIUM 180             
1 43922U 19002A   25150.52540471  .00000009  00000+0 -36851-5 0  9990
2 43922  86.3980 153.5577 0002189  92.6073 267.5373 14.34217504334145
IRIDIUM 176             
1 43923U 19002B   25150.56877087  .00000554  00000+0  83902-4 0  9993
2 43923  86.6105 153.5346 0002775 103.5265 256.6262 14.72251878342956
IRIDIUM 168             
1 43924U 19002C   25150.51906140  .00000051  00000+0  11144-4 0  9993
2 43924  86.3978 153.6269 0002343  90.2144 269.9321 14.34218100334128
IRIDIUM 173             
1 43925U 19002D   25150.57614528  .00000041  00000+0  77531-5 0  9998
2 43925  86.3975 153.5077 0002380  94.0642 266.0826 14.34217815334117
IRIDIUM 169             
1 43926U 19002E   25150.62593927  .00000305  00000+0  93240-4 0  9991
2 43926  86.4259 185.0631 0003550 108.0301 252.1285 14.38604305335224
IRIDIUM 172             
1 43927U 19002F   25150.50003041  .00000002  00000+0 -64704-5 0  9991
2 43927  86.3980 153.5462 0001943  93.8373 266.3045 14.34217111334110
IRIDIUM 175             
1 43928U 19002G   25150.42781324  .00001078  00000+0  16696-3 0  9998
2 43928  86.1488 107.1195 0003312  81.7509 278.4083 14.72244249342927
IRIDIUM 171             
1 43929U 19002H   25150.48100657 -.00000006  00000+0 -92632-5 0  9997
2 43929  86.3989 153.8178 0002424  82.7393 277.4078 14.34217576334105
IRIDIUM 170             
1 43930U 19002J   25150.09917014  .00000764  00000+0  11729-3 0  9994
2 43930  86.6107 153.7355 0003017  95.1220 265.0341 14.72250721342896
IRIDIUM 167             
1 43931U 19002K   25150.54443296  .00000027  00000+0  25769-5 0  9994
2 43931  86.3976 153.5468 0002775  86.0654 274.0859 14.34217778334114
IRIDIUM 181             
1 56726U 23068S   25150.54687451  .00000362  00000+0  10156-3 0  9994
2 56726  86.4541 216.5954 0002384  79.6778 280.4692 14.43311067107244
IRIDIUM 177             
1 56727U 23068T   25150.49466835  .00000535  00000+0  66937-4 0  9991
2 56727  86.1970 150.5250 0002666  85.5798 274.5727 14.80235804109751
IRIDIUM 174             
1 56728U 23068U   25150.49458267  .00000428  00000+0  64063-4 0  9991
2 56728  86.6110 153.6786 0002177 101.2613 258.8849 14.72242464109717
IRIDIUM 178             
1 56729U 23068V   25150.55137778  .00001178  00000+0  15160-3 0  9996
2 56729  86.6578 185.1906 0002283  93.5734 266.5748 14.80238808109760
IRIDIUM 179             
1 56730U 23068W   25150.61364145  .00001159  00000+0  14903-3 0  9998
2 56730  86.6821 192.9814 0002569  94.8036 265.3479 14.80234834109777
